QIANFAN-49              
1 62250U 24232P   25283.81137615  .00000138  00000+0  19445-3 0  9997
2 62250  89.0016  47.5715 0014450  24.2672 335.9157 13.50977547 59349
QIANFAN-50              
1 62251U 24232Q   25283.83607663  .00000123  00000+0  17134-3 0  9992
2 62251  89.0020  47.5737 0016135  24.7909 335.4014 13.50978066 59376
QIANFAN-51              
1 62252U 24232R   25283.81961021  .00000138  00000+0  19459-3 0  9990
2 62252  89.0014  47.5731 0013767  29.5786 330.6141 13.50974964 59368
QIANFAN-52              
1 62253U 24232S   25283.84837692  .00000127  00000+0  17855-3 0  9996
2 62253  89.0010  47.4462 0015519  20.9774 339.2010 13.50977489 59459
QIANFAN-53              
1 62254U 24232T   25283.82787638  .00000135  00000+0  18980-3 0  9998
2 62254  89.0019  47.5480 0014446  22.6887 337.4900 13.50973258 59416
QIANFAN-54              
1 62255U 24232U   25283.79490894  .00000133  00000+0  18780-3 0  9996
2 62255  89.0010  47.2353 0003615  78.0883 282.0674 13.50975396 90919
QIANFAN-55              
1 62785U 25016A   25283.82094337  .00000036  00000+0  37518-4 0  9994
2 62785  88.9743 109.7099 0017624 164.8150 195.3533 13.50967058 38698
QIANFAN-56              
1 62786U 25016B   25283.83743807  .00000053  00000+0  62765-4 0  9990
2 62786  88.9718 109.5616 0016224 166.6827 193.4756 13.50975286 38744
